FENGYUN 1C DEB          
1 29896U 99025GS  17345.70921097  .00000274  00000-0  33182-3 0  9997
2 29896  99.5402 261.0273 0246148  23.7604  32.0404 13.62755641542063
